NORAD_CAT_ID,OBJECT_NAME,OBJECT_TYPE,EPOCH,MEAN_MOTION,ECCENTRICITY,INCLINATION,RA_OF_ASC_NODE,ARG_OF_PERICENTER,MEAN_ANOMALY,BSTAR,MEAN_MOTION_DOT,MEAN_MOTION_DDOT,TLE_LINE0,TLE_LINE1,TLE_LINE2,SEMIMAJOR_AXIS,PERIOD,APOGEE,PERIGEE,DECAYED
52103.0,STARLINK-3705,PAYLOAD,2023-06-14 00:12:13,15.08841862,0.0001168,53.2171,246.8685,101.0409,259.0715,5.9712e-05,6.63e-06,0.0,0 STARLINK-3705,1 52103U 22029R   23165.00848399  .00000663  00000-0  59712-4 0  9997,2 52103  53.2171 246.8685 0001168 101.0409 259.0715 15.08841862 69863,6917.875,95.437,540.548,538.932,0.0
52103.0,STARLINK-3705,PAYLOAD,2023-06-14 04:58:22,15.08840492,0.0001132,53.2167,245.9761,97.8544,262.2577,8.2996e-05,1.033e-05,0.0,0 STARLINK-3705,1 52103U 22029R   23165.20720444  .00001033  00000-0  82996-4 0  9991,2 52103  53.2167 245.9761 0001132  97.8544 262.2577 15.08840492 69899,6917.879,95.438,540.527,538.961,0.0
52103.0,STARLINK-3705,PAYLOAD,2023-06-15 09:35:19,15.08833968,0.0001143,53.2156,240.6218,86.8903,273.222,8.8315e-05,1.118e-05,0.0,0 STARLINK-3705,1 52103U 22029R   23166.39953070  .00001118  00000-0  88315-4 0  9990,2 52103  53.2156 240.6218 0001143  86.8903 273.2220 15.08833968 70074,6917.899,95.438,540.555,538.973,0.0
52103.0,STARLINK-3705,PAYLOAD,2023-06-15 12:46:05,15.08838722,0.0001128,53.2157,240.0268,87.539,272.5732,7.5724e-05,9.17e-06,0.0,0 STARLINK-3705,1 52103U 22029R   23166.53200852  .00000917  00000-0  75724-4 0  9995,2 52103  53.2157 240.0268 0001128  87.5390 272.5732 15.08838722 70090,6917.884,95.438,540.53,538.969,0.0
52103.0,STARLINK-3705,PAYLOAD,2023-06-15 14:21:28,15.08840281,0.0001127,53.2156,239.7292,88.4157,271.6964,8.5953e-05,1.08e-05,0.0,0 STARLINK-3705,1 52103U 22029R   23166.59824724  .00001080  00000-0  85953-4 0  9998,2 52103  53.2156 239.7292 0001127  88.4157 271.6964 15.08840281 70103,6917.88,95.438,540.524,538.965,0.0
52103.0,STARLINK-3705,PAYLOAD,2023-06-16 09:26:05,15.08849172,0.0001213,53.2152,236.1613,83.7493,276.3638,0.00011523,1.547e-05,0.0,0 STARLINK-3705,1 52103U 22029R   23167.39311982  .00001547  00000-0  11523-3 0  9993,2 52103  53.2152 236.1613 0001213  83.7493 276.3638 15.08849172 70225,6917.852,95.437,540.556,538.878,0.0
52103.0,STARLINK-3705,PAYLOAD,2023-06-16 11:01:28,15.08849883,0.0001208,53.2152,235.864,83.6845,276.4285,0.00012196,1.654e-05,0.0,0 STARLINK-3705,1 52103U 22029R   23167.45935912  .00001654  00000-0  12196-3 0  9991,2 52103  53.2152 235.8640 0001208  83.6845 276.4285 15.08849883 70234,6917.85,95.437,540.551,538.88,0.0
52103.0,STARLINK-3705,PAYLOAD,2023-06-16 23:44:34,15.08841302,0.0001277,53.2152,233.486,83.2159,276.8979,9.1841e-05,1.174e-05,0.0,0 STARLINK-3705,1 52103U 22029R   23167.98928334  .00001174  00000-0  91841-4 0  9991,2 52103  53.2152 233.4860 0001277  83.2159 276.8979 15.08841302 70313,6917.876,95.437,540.625,538.858,0.0
52103.0,STARLINK-3705,PAYLOAD,2023-06-17 10:52:16,15.0883065,0.0001241,53.2152,231.4031,88.9806,271.1328,-1.5204e-05,-5.3e-06,0.0,0 STARLINK-3705,1 52103U 22029R   23168.45297352 -.00000530  00000-0 -15204-4 0  9999,2 52103  53.2152 231.4031 0001241  88.9806 271.1328 15.08830650 70380,6917.909,95.438,540.632,538.915,0.0
52103.0,STARLINK-3705,PAYLOAD,2023-06-17 14:03:03,15.0883422,0.0001179,53.2155,230.8081,96.8898,263.2228,-1.9881e-05,-6.04e-06,0.0,0 STARLINK-3705,1 52103U 22029R   23168.58545148 -.00000604  00000-0 -19881-4 0  9999,2 52103  53.2155 230.8081 0001179  96.8898 263.2228 15.08834220 70401,6917.898,95.438,540.579,538.947,0.0
52103.0,STARLINK-3705,PAYLOAD,2023-06-18 10:43:03,15.08839619,0.0001173,53.2161,226.9427,103.0642,257.0481,-4.5437e-05,-1.011e-05,0.0,0 STARLINK-3705,1 52103U 22029R   23169.44657044 -.00001011  00000-0 -45437-4 0  9993,2 52103  53.2161 226.9427 0001173 103.0642 257.0481 15.08839619 70533,6917.882,95.438,540.558,538.935,0.0
52103.0,STARLINK-3705,PAYLOAD,2023-06-18 20:15:22,15.08843743,0.0001125,53.216,225.1586,101.7446,258.3673,-7.4812e-05,-1.478e-05,0.0,0 STARLINK-3705,1 52103U 22029R   23169.84400844 -.00001478  00000-0 -74812-4 0  9997,2 52103  53.2160 225.1586 0001125 101.7446 258.3673 15.08843743 70599,6917.869,95.437,540.512,538.956,0.0
52103.0,STARLINK-3705,PAYLOAD,2023-06-19 12:09:13,15.08837241,0.0001056,53.2157,222.185,95.5693,264.5419,9.4829e-05,1.222e-05,0.0,0 STARLINK-3705,1 52103U 22029R   23170.50641042  .00001222  00000-0  94829-4 0  9994,2 52103  53.2157 222.1850 0001056  95.5693 264.5419 15.08837241 70697,6917.889,95.438,540.484,539.023,0.0
52103.0,STARLINK-3705,PAYLOAD,2023-06-19 20:06:09,15.08833089,0.0001039,53.2156,220.6982,94.1416,265.9695,5.6768e-05,6.16e-06,0.0,0 STARLINK-3705,1 52103U 22029R   23170.83761527  .00000616  00000-0  56768-4 0  9997,2 52103  53.2156 220.6982 0001039  94.1416 265.9695 15.08833089 70747,6917.902,95.438,540.485,539.048,0.0
52103.0,STARLINK-3705,PAYLOAD,2023-06-20 10:24:38,15.08839286,0.0001012,53.2157,218.0223,96.8099,263.3009,5.7245e-05,6.23e-06,0.0,0 STARLINK-3705,1 52103U 22029R   23171.43377316  .00000623  00000-0  57245-4 0  9992,2 52103  53.2157 218.0223 0001012  96.8099 263.3009 15.08839286 70830,6917.883,95.438,540.448,539.047,0.0
52103.0,STARLINK-3705,PAYLOAD,2023-06-20 12:00:01,15.08840269,0.0001022,53.2156,217.7247,95.4373,264.6736,6.5348e-05,7.52e-06,0.0,0 STARLINK-3705,1 52103U 22029R   23171.50001240  .00000752  00000-0  65348-4 0  9996,2 52103  53.2156 217.7247 0001022  95.4373 264.6736 15.08840269 70847,6917.88,95.438,540.452,539.038,0.0
52103.0,STARLINK-3705,PAYLOAD,2023-06-21 02:18:29,15.08838364,0.0001018,53.2155,215.0484,94.1921,265.9187,5.3403e-05,5.62e-06,0.0,0 STARLINK-3705,1 52103U 22029R   23172.09617423  .00000562  00000-0  53403-4 0  9995,2 52103  53.2155 215.0484 0001018  94.1921 265.9187 15.08838364 70937,6917.885,95.438,540.455,539.046,0.0
52103.0,STARLINK-3705,PAYLOAD,2023-06-21 11:50:48,15.08843214,0.0001003,53.2154,213.2639,94.1172,265.9935,5.8074e-05,6.37e-06,0.0,0 STARLINK-3705,1 52103U 22029R   23172.49361135  .00000637  00000-0  58074-4 0  9997,2 52103  53.2154 213.2639 0001003  94.1172 265.9935 15.08843214 70997,6917.871,95.437,540.429,539.042,0.0
52103.0,STARLINK-3705,PAYLOAD,2023-06-22 10:06:12,15.08840129,0.000104,53.2155,209.1006,98.0319,262.0791,2.2305e-05,6.7e-07,0.0,0 STARLINK-3705,1 52103U 22029R   23173.42097478  .00000067  00000-0  22305-4 0  9992,2 52103  53.2155 209.1006 0001040  98.0319 262.0791 15.08840129 71134,6917.88,95.438,540.464,539.026,0.0
52103.0,STARLINK-3705,PAYLOAD,2023-06-24 01:50:50,15.08840422,9.7e-05,53.2149,201.665,92.3065,267.8038,6.0904e-05,6.82e-06,0.0,0 STARLINK-3705,1 52103U 22029R   23175.07697408  .00000682  00000-0  60904-4 0  9994,2 52103  53.2149 201.6650 0000970  92.3065 267.8038 15.08840422 71385,6917.879,95.438,540.415,539.073,0.0
52103.0,STARLINK-3705,PAYLOAD,2023-06-25 08:03:10,15.08839683,9.84e-05,53.2149,196.0153,88.3096,271.8009,5.7339e-05,6.25e-06,0.0,0 STARLINK-3705,1 52103U 22029R   23176.33553479  .00000625  00000-0  57339-4 0  9998,2 52103  53.2149 196.0153 0000984  88.3096 271.8009 15.08839683 71575,6917.881,95.438,540.427,539.066,0.0
52103.0,STARLINK-3705,PAYLOAD,2023-06-26 17:26:16,15.08837154,0.0001026,53.2152,189.7703,87.2761,272.8349,-8.3884e-06,-4.21e-06,0.0,0 STARLINK-3705,1 52103U 22029R   23177.72657910 -.00000421  00000-0 -83884-5 0  9998,2 52103  53.2152 189.7703 0001026  87.2761 272.8349 15.08837154 71786,6917.889,95.438,540.464,539.044,0.0
52103.0,STARLINK-3705,PAYLOAD,2023-06-27 23:38:36,15.08836104,9.94e-05,53.2152,184.1216,93.3687,266.7419,4.7056e-05,4.61e-06,0.0,0 STARLINK-3705,1 52103U 22029R   23178.98514089  .00000461  00000-0  47056-4 0  9998,2 52103  53.2152 184.1216 0000994  93.3687 266.7419 15.08836104 71977,6917.892,95.438,540.445,539.07,0.0
52103.0,STARLINK-3705,PAYLOAD,2023-06-29 09:01:42,15.08838197,9.89e-05,53.215,177.8765,87.2695,272.841,5.7165e-05,6.22e-06,0.0,0 STARLINK-3705,1 52103U 22029R   23180.37618162  .00000622  00000-0  57165-4 0  9992,2 52103  53.2150 177.8765 0000989  87.2695 272.8410 15.08838197 72185,6917.886,95.438,540.435,539.067,0.0
52103.0,STARLINK-3705,PAYLOAD,2023-06-30 23:10:57,15.08835397,0.0001033,53.215,170.739,86.8252,273.2858,-2.5257e-06,-3.28e-06,0.0,0 STARLINK-3705,1 52103U 22029R   23181.96594498 -.00000328  00000-0 -25257-5 0  9996,2 52103  53.2150 170.7390 0001033  86.8252 273.2858 15.08835397 72423,6917.894,95.438,540.474,539.045,0.0
52103.0,STARLINK-3705,PAYLOAD,2023-07-02 02:12:30,15.08841811,0.0001066,53.2155,165.6836,85.3904,274.721,2.9123e-05,1.76e-06,0.0,0 STARLINK-3705,1 52103U 22029R   23183.09202108  .00000176  00000-0  29123-4 0  9990,2 52103  53.2155 165.6836 0001066  85.3904 274.7210 15.08841811 72594,6917.875,95.437,540.477,539.002,0.0
52103.0,STARLINK-3705,PAYLOAD,2023-07-03 05:14:04,15.0883934,0.0001104,53.2156,160.6288,79.7207,280.391,6.247e-05,7.07e-06,0.0,0 STARLINK-3705,1 52103U 22029R   23184.21810213  .00000707  00000-0  62470-4 0  9999,2 52103  53.2156 160.6288 0001104  79.7207 280.3910 15.08839340 72760,6917.882,95.438,540.511,538.984,0.0
52103.0,STARLINK-3705,PAYLOAD,2023-07-04 09:51:00,15.08841128,0.0001202,53.2163,155.2758,95.0401,265.0728,1.5966e-05,-3.4e-07,0.0,0 STARLINK-3705,1 52103U 22029R   23185.41042310 -.00000034  00000-0  15966-4 0  9999,2 52103  53.2163 155.2758 0001202  95.0401 265.0728 15.08841128 72940,6917.877,95.437,540.573,538.91,0.0
52103.0,STARLINK-3705,PAYLOAD,2023-07-05 14:27:57,15.08829537,0.0001183,53.2164,149.9244,96.7711,263.3416,5.6845e-05,6.17e-06,0.0,0 STARLINK-3705,1 52103U 22029R   23186.60275147  .00000617  00000-0  56845-4 0  9994,2 52103  53.2164 149.9244 0001183  96.7711 263.3416 15.08829537 73127,6917.912,95.438,540.596,538.959,0.0
52103.0,STARLINK-3705,PAYLOAD,2023-07-06 14:18:44,15.08838245,0.0001235,53.2165,145.4643,90.2625,269.8509,2.0416e-05,3.7e-07,0.0,0 STARLINK-3705,1 52103U 22029R   23187.59635134  .00000037  00000-0  20416-4 0  9990,2 52103  53.2165 145.4643 0001235  90.2625 269.8509 15.08838245 73279,6917.886,95.438,540.605,538.896,0.0
